HXMT (HUIYAN)           
1 42758U 17034A   26076.21531391  .00004696  00000+0  23806-3 0  9993
2 42758  43.0158 334.8320 0033194 281.6948  78.0177 15.17573604483688
SAOCOM 1A               
1 43641U 18076A   26076.32169264 -.00000161  00000+0 -13715-4 0  9994
2 43641  97.8895 264.3863 0001428  86.1423 273.9954 14.82147004402496
H-2A R/B                
1 43682U 18084L   26076.19765367  .00014205  00000+0  33569-3 0  9999
2 43682  98.8724 295.1923 0024778 359.6295   0.4925 15.41677086406938
SAOCOM 1B               
1 46265U 20059A   26073.04490030  .00000161  00000+0  26755-4 0  9993
2 46265  97.8899 260.2532 0001383  84.3427 275.7944 14.82151938299390
CSS (TIANHE)            
1 48274U 21035A   26076.26557602  .00021102  00000+0  24646-3 0  9990
2 48274  41.4671 162.0513 0006150 318.9181  41.1194 15.61083168278793
COSMOS 2550             
1 48865U 21056A   26076.14655870 -.00000204  00000+0 -37996-6 0  9999
2 48865  67.1448  18.3252 0008297 268.8880  91.1323 15.33878800264600
CZ-2C R/B               
1 52794U 22058K   26075.90461186  .00031172  00000+0  44728-3 0  9990
2 52794  50.1879 281.1612 0041966 231.5981 128.1218 15.54771257211253
CZ-2C R/B               
1 54039U 22132E   26075.99422310  .00038020  00000+0  42281-3 0  9993
2 54039  97.2950  79.5356 0019940  68.1935 292.1443 15.62542134191510
GSLV R/B                
1 54149U 22138AN  26076.20850182  .00001917  00000+0  16397-3 0  9992
2 54149  87.3883 163.8462 0023762 121.7083 238.6470 14.96829228185054
XRISM                   
1 57800U 23137A   26075.83845909  .00004584  00000+0  25781-3 0  9998
2 57800  31.0006 237.4205 0007912 110.8758 249.2728 15.11582898138873
ACS3                    
1 59588U 24077B   26076.05744300  .00022098  00000+0  17604-1 0  9998
2 59588  97.2030  15.5129 0065997  58.9518 301.8103 13.89952761 95228
SZ-21 MODULE            
1 66515U 25246C   26075.63014367  .00032043  00000+0  27011-3 0  9997
2 66515  41.4745 160.6185 0000725 306.4076  53.6699 15.69116640 19161
