[{"OBJECT_NAME":"HXMT (HUIYAN)","OBJECT_ID":"2017-034A","EPOCH":"2026-03-17T05:10:03.121824","MEAN_MOTION":15.17573604,"ECCENTRICITY":0.00331949,"INCLINATION":43.0158,"RA_OF_ASC_NODE":334.832,"ARG_OF_PERICENTER":281.6948,"MEAN_ANOMALY":78.0177,"EPHEMERIS_TYPE":0,"CLASSIFICATION_TYPE":"U","NORAD_CAT_ID":42758,"ELEMENT_SET_NO":999,"REV_AT_EPOCH":48368,"BSTAR":0.00023806238,"MEAN_MOTION_DOT":4.696e-5,"MEAN_MOTION_DDOT":0},{"OBJECT_NAME":"SAOCOM 1A","OBJECT_ID":"2018-076A","EPOCH":"2026-03-17T07:43:14.244096","MEAN_MOTION":14.82147004,"ECCENTRICITY":0.00014288,"INCLINATION":97.8895,"RA_OF_ASC_NODE":264.3863,"ARG_OF_PERICENTER":86.1423,"MEAN_ANOMALY":273.9954,"EPHEMERIS_TYPE":0,"CLASSIFICATION_TYPE":"U","NORAD_CAT_ID":43641,"ELEMENT_SET_NO":999,"REV_AT_EPOCH":40249,"BSTAR":-1.3715339e-5,"MEAN_MOTION_DOT":-1.61e-6,"MEAN_MOTION_DDOT":0},{"OBJECT_NAME":"H-2A R/B","OBJECT_ID":"2018-084L","EPOCH":"2026-03-17T04:44:37.277088","MEAN_MOTION":15.41677086,"ECCENTRICITY":0.00247789,"INCLINATION":98.8724,"RA_OF_ASC_NODE":295.1923,"ARG_OF_PERICENTER":359.6295,"MEAN_ANOMALY":0.4925,"EPHEMERIS_TYPE":0,"CLASSIFICATION_TYPE":"U","NORAD_CAT_ID":43682,"ELEMENT_SET_NO":999,"REV_AT_EPOCH":40693,"BSTAR":0.00033568728,"MEAN_MOTION_DOT":0.00014205,"MEAN_MOTION_DDOT":0},{"OBJECT_NAME":"SAOCOM 1B","OBJECT_ID":"2020-059A","EPOCH":"2026-03-14T01:04:39.385920","MEAN_MOTION":14.82151938,"ECCENTRICITY":0.00013837,"INCLINATION":97.8899,"RA_OF_ASC_NODE":260.2532,"ARG_OF_PERICENTER":84.3427,"MEAN_ANOMALY":275.7944,"EPHEMERIS_TYPE":0,"CLASSIFICATION_TYPE":"U","NORAD_CAT_ID":46265,"ELEMENT_SET_NO":999,"REV_AT_EPOCH":29939,"BSTAR":2.6755151e-5,"MEAN_MOTION_DOT":1.61e-6,"MEAN_MOTION_DDOT":0},{"OBJECT_NAME":"CSS (TIANHE)","OBJECT_ID":"2021-035A","EPOCH":"2026-03-17T06:22:25.768128","MEAN_MOTION":15.61083168,"ECCENTRICITY":0.00061505,"INCLINATION":41.4671,"RA_OF_ASC_NODE":162.0513,"ARG_OF_PERICENTER":318.9181,"MEAN_ANOMALY":41.1194,"EPHEMERIS_TYPE":0,"CLASSIFICATION_TYPE":"U","NORAD_CAT_ID":48274,"ELEMENT_SET_NO":999,"REV_AT_EPOCH":27879,"BSTAR":0.00024645816,"MEAN_MOTION_DOT":0.00021102,"MEAN_MOTION_DDOT":0},{"OBJECT_NAME":"COSMOS 2550","OBJECT_ID":"2021-056A","EPOCH":"2026-03-17T03:31:02.671680","MEAN_MOTION":15.338788,"ECCENTRICITY":0.00082971,"INCLINATION":67.1448,"RA_OF_ASC_NODE":18.3252,"ARG_OF_PERICENTER":268.888,"MEAN_ANOMALY":91.1323,"EPHEMERIS_TYPE":0,"CLASSIFICATION_TYPE":"U","NORAD_CAT_ID":48865,"ELEMENT_SET_NO":999,"REV_AT_EPOCH":26460,"BSTAR":-3.79957e-7,"MEAN_MOTION_DOT":-2.04e-6,"MEAN_MOTION_DDOT":0},{"OBJECT_NAME":"CZ-2C R/B","OBJECT_ID":"2022-058K","EPOCH":"2026-03-16T21:42:38.464704","MEAN_MOTION":15.54771257,"ECCENTRICITY":0.00419661,"INCLINATION":50.1879,"RA_OF_ASC_NODE":281.1612,"ARG_OF_PERICENTER":231.5981,"MEAN_ANOMALY":128.1218,"EPHEMERIS_TYPE":0,"CLASSIFICATION_TYPE":"U","NORAD_CAT_ID":52794,"ELEMENT_SET_NO":999,"REV_AT_EPOCH":21125,"BSTAR":0.00044728262,"MEAN_MOTION_DOT":0.00031172,"MEAN_MOTION_DDOT":0},{"OBJECT_NAME":"CZ-2C R/B","OBJECT_ID":"2022-132E","EPOCH":"2026-03-16T23:51:40.875840","MEAN_MOTION":15.62542134,"ECCENTRICITY":0.00199405,"INCLINATION":97.295,"RA_OF_ASC_NODE":79.5356,"ARG_OF_PERICENTER":68.1935,"MEAN_ANOMALY":292.1443,"EPHEMERIS_TYPE":0,"CLASSIFICATION_TYPE":"U","NORAD_CAT_ID":54039,"ELEMENT_SET_NO":999,"REV_AT_EPOCH":19151,"BSTAR":0.00042281241,"MEAN_MOTION_DOT":0.0003802,"MEAN_MOTION_DDOT":0},{"OBJECT_NAME":"GSLV R/B","OBJECT_ID":"2022-138AN","EPOCH":"2026-03-17T05:00:14.557248","MEAN_MOTION":14.96829228,"ECCENTRICITY":0.0023762,"INCLINATION":87.3883,"RA_OF_ASC_NODE":163.8462,"ARG_OF_PERICENTER":121.7083,"MEAN_ANOMALY":238.647,"EPHEMERIS_TYPE":0,"CLASSIFICATION_TYPE":"U","NORAD_CAT_ID":54149,"ELEMENT_SET_NO":999,"REV_AT_EPOCH":18505,"BSTAR":0.00016396691,"MEAN_MOTION_DOT":1.917e-5,"MEAN_MOTION_DDOT":0},{"OBJECT_NAME":"XRISM","OBJECT_ID":"2023-137A","EPOCH":"2026-03-16T20:07:22.865376","MEAN_MOTION":15.11582898,"ECCENTRICITY":0.00079125,"INCLINATION":31.0006,"RA_OF_ASC_NODE":237.4205,"ARG_OF_PERICENTER":110.8758,"MEAN_ANOMALY":249.2728,"EPHEMERIS_TYPE":0,"CLASSIFICATION_TYPE":"U","NORAD_CAT_ID":57800,"ELEMENT_SET_NO":999,"REV_AT_EPOCH":13887,"BSTAR":0.00025781418,"MEAN_MOTION_DOT":4.584e-5,"MEAN_MOTION_DDOT":0},{"OBJECT_NAME":"ACS3","OBJECT_ID":"2024-077B","EPOCH":"2026-03-17T01:22:43.075200","MEAN_MOTION":13.89952761,"ECCENTRICITY":0.00659972,"INCLINATION":97.203,"RA_OF_ASC_NODE":15.5129,"ARG_OF_PERICENTER":58.9518,"MEAN_ANOMALY":301.8103,"EPHEMERIS_TYPE":0,"CLASSIFICATION_TYPE":"U","NORAD_CAT_ID":59588,"ELEMENT_SET_NO":999,"REV_AT_EPOCH":9522,"BSTAR":0.017603998,"MEAN_MOTION_DOT":0.00022098,"MEAN_MOTION_DDOT":0},{"OBJECT_NAME":"SZ-21 MODULE","OBJECT_ID":"2025-246C","EPOCH":"2026-03-16T15:07:24.413088","MEAN_MOTION":15.6911664,"ECCENTRICITY":7.252e-5,"INCLINATION":41.4745,"RA_OF_ASC_NODE":160.6185,"ARG_OF_PERICENTER":306.4076,"MEAN_ANOMALY":53.6699,"EPHEMERIS_TYPE":0,"CLASSIFICATION_TYPE":"U","NORAD_CAT_ID":66515,"ELEMENT_SET_NO":999,"REV_AT_EPOCH":1916,"BSTAR":0.00027011342,"MEAN_MOTION_DOT":0.00032043,"MEAN_MOTION_DDOT":0}]
